[{"OBJECT_NAME":"STARLINK-3678","OBJECT_ID":"2022-029AK","EPOCH":"2026-03-09T10:27:44.269920","MEAN_MOTION":15.08831331,"ECCENTRICITY":0.00013369,"INCLINATION":53.2174,"RA_OF_ASC_NODE":70.2621,"ARG_OF_PERICENTER":93.2339,"MEAN_ANOMALY":266.8806,"EPHEMERIS_TYPE":0,"CLASSIFICATION_TYPE":"U","NORAD_CAT_ID":52121,"ELEMENT_SET_NO":999,"REV_AT_EPOCH":22088,"BSTAR":-5.35713e-5,"MEAN_MOTION_DOT":-1.14e-5,"MEAN_MOTION_DDOT":0},{"OBJECT_NAME":"UNKNOWN","OBJECT_ID":"","EPOCH":"2026-03-07T17:21:07.805664","MEAN_MOTION":15.09455608,"ECCENTRICITY":0.0009057,"INCLINATION":82.8696,"RA_OF_ASC_NODE":177.6495,"ARG_OF_PERICENTER":167.3062,"MEAN_ANOMALY":192.8398,"EPHEMERIS_TYPE":0,"CLASSIFICATION_TYPE":"U","NORAD_CAT_ID":87725,"ELEMENT_SET_NO":999,"REV_AT_EPOCH":64668,"BSTAR":0.0060116,"MEAN_MOTION_DOT":0.00097492,"MEAN_MOTION_DDOT":0}]
